ICEYE-X43               
1 60539U 24149BZ  26166.76088521  .00003683  00000+0  30380-3 0  9997
2 60539  97.6784 243.7449 0008181  89.0917 271.1244 14.99608347 99900
HAWK-10A                
1 60540U 24149CA  26166.69862912  .00002045  00000+0  18496-3 0  9990
2 60540  97.6898 242.6355 0005083  82.5972 277.5827 14.96513113 99763
UMBRA-09                
1 60541U 24149CB  26166.81502655  .00012216  00000+0  60359-3 0  9996
2 60541  97.6977 253.9966 0000529 279.6833  80.4340 15.18007643100518
QPS-SAR-8 (AMATERU-IV)  
1 60542U 24149CC  26166.92968261  .00003808  00000+0  27906-3 0  9996
2 60542  97.6666 246.0905 0004877 110.7730 249.4018 15.04124869100087
ARCTIC WEATHER SATELLITE
1 60543U 24149CD  26166.94471608  .00000792  00000+0  88116-4 0  9993
2 60543  97.6802 237.4459 0003628 106.4179 253.7438 14.89804852 99114
CAPELLA-15 (ACADIA-5)   
1 60544U 24149CE  26166.91454103  .00002773  00000+0  27625-3 0  9990
2 60544  97.6773 239.8496 0004812  81.7285 278.4480 14.92387617 99668
HAWK-10B                
1 60545U 24149CF  26166.76533948  .00001814  00000+0  16460-3 0  9999
2 60545  97.6817 242.0577 0007037  96.6080 263.5943 14.96512605 99776
ICEYE-X39               
1 60546U 24149CG  26166.94284350  .00002927  00000+0  24080-3 0  9993
2 60546  97.6765 243.9832 0005132 121.9523 238.2200 14.99890081 99934
UMBRA-10                
1 60547U 24149CH  26166.74866440  .00012537  00000+0  61937-3 0  9998
2 60547  97.6984 253.9568 0000630  72.1032 288.0270 15.18005954100511
ICEYE-X33               
1 60548U 24149CJ  26166.50240684  .00004173  00000+0  33257-3 0  9990
2 60548  97.7215 245.6519 0001591  99.4442 260.6961 15.00887084 99959
ICEYE-X40               
1 60549U 24149CK  26166.96658693  .00002303  00000+0  20024-3 0  9995
2 60549  97.6817 243.4817 0006640  85.6253 274.5728 14.97937349 99894
SATELIOT_1              
1 60550U 24149CL  26166.75748930  .00002514  00000+0  21734-3 0  9991
2 60550  97.6750 242.6785 0008420  85.1104 275.1079 14.98062547 99857
BRO-14                  
1 60551U 24149CM  26166.72398766  .00000574  00000+0  55993-4 0  9996
2 60551  97.6876 242.5281 0008040 100.5237 259.6891 14.96174209 99771
SATELIOT_3              
1 60552U 24149CN  26166.93362060  .00001636  00000+0  14324-3 0  9990
2 60552  97.6817 243.6431 0005878  89.2771 270.9124 14.98048891 99895
BRO-15                  
1 60553U 24149CP  26166.63954802  .00000927  00000+0  87329-4 0  9997
2 60553  97.6809 242.0493 0009677  91.6780 268.5550 14.96157426 99772
UM5-RIBAT               
1 60554U 24149CQ  26166.93895667  .00002591  00000+0  20723-3 0  9997
2 60554  97.6640 244.7562 0003565  63.8669 296.2921 15.01069982100004
UM5-EOSAT               
1 60555U 24149CR  26166.90572391  .00003941  00000+0  30894-3 0  9991
2 60555  97.6709 245.6563 0008769 118.4783 241.7325 15.01521756100024
LASARSAT                
1 62391U 24247Q   26164.61689910  .00032689  00000+0  65515-3 0  9991
2 62391  44.9751 282.2745 0008375 311.5212  48.4959 15.46168743 82768
CROCUBE                 
1 62394U 24247T   26165.58698051  .00034757  00000+0  65094-3 0  9997
2 62394  44.9722 274.1999 0008187 320.7516  39.2780 15.48102542 82947
TEVEL2-4                
1 63213U 25052D   26166.68245348  .00015491  00000+0  46436-3 0  9995
2 63213  97.3913  63.0717 0004849 106.3363 253.8414 15.34567843 69884
TEVEL2-5                
1 63214U 25052E   26166.96364297  .00014759  00000+0  44491-3 0  9997
2 63214  97.3907  63.3018 0004761 106.7826 253.3939 15.34401935 69927
TEVEL2-6                
1 63215U 25052F   26166.71508266  .00015670  00000+0  47278-3 0  9996
2 63215  97.3914  63.0372 0004683 108.2404 251.9350 15.34360157 69884
TEVEL2-1                
1 63217U 25052H   26166.67835869  .00014861  00000+0  45615-3 0  9999
2 63217  97.3883  62.6268 0004711 116.5645 243.6081 15.33827137 69863
TEVEL2-3                
1 63218U 25052J   26166.67305633  .00015117  00000+0  46315-3 0  9994
2 63218  97.3888  62.6431 0004675 116.5450 243.6272 15.33881810 69864
TEVEL2-2                
1 63219U 25052K   26166.67868108  .00015064  00000+0  46221-3 0  9993
2 63219  97.3885  62.6296 0004687 116.9580 243.2142 15.33835792 69862
TEVEL2-9                
1 63237U 25052AD  26166.65415554  .00013750  00000+0  44881-3 0  9994
2 63237  97.3947  61.9834 0007675 135.1334 225.0529 15.31858774 69793
TEVEL2-7                
1 63238U 25052AE  26166.95610824  .00012388  00000+0  40832-3 0  9993
2 63238  97.3948  62.2015 0007779 134.5643 225.6235 15.31570712 69839
TEVEL2-8                
1 63239U 25052AF  26166.96434749  .00012397  00000+0  40879-3 0  9996
2 63239  97.3947  62.1866 0007790 135.1271 225.0601 15.31555084 69835
FORESAIL-1 PRIME        
1 66778U 25276DS  26166.67880527  .00004550  00000+0  22260-3 0  9998
2 66778  97.4204 239.9765 0003877 107.8702 252.2956 15.18690446 30179
