OBJECT_NAME,OBJECT_ID,EPOCH,MEAN_MOTION,ECCENTRICITY,INCLINATION,RA_OF_ASC_NODE,ARG_OF_PERICENTER,MEAN_ANOMALY,EPHEMERIS_TYPE,CLASSIFICATION_TYPE,NORAD_CAT_ID,ELEMENT_SET_NO,REV_AT_EPOCH,BSTAR,MEAN_MOTION_DOT,MEAN_MOTION_DDOT
ICEYE-X43,2024-149BZ,2026-06-15T18:15:40.482144,14.99608347,.00081815,97.6784,243.7449,89.0917,271.1244,0,U,60539,999,9990,.30379653E-3,.3683E-4,0
HAWK-10A,2024-149CA,2026-06-15T16:46:01.555968,14.96513113,.00050839,97.6898,242.6355,82.5972,277.5827,0,U,60540,999,9976,.18495904E-3,.2045E-4,0
UMBRA-09,2024-149CB,2026-06-15T19:33:38.293920,15.18007643,.00005297,97.6977,253.9966,279.6833,80.4340,0,U,60541,999,10051,.60359411E-3,.12216E-3,0
QPS-SAR-8 (AMATERU-IV),2024-149CC,2026-06-15T22:18:44.577504,15.04124869,.0004877,97.6666,246.0905,110.7730,249.4018,0,U,60542,999,10008,.27905792E-3,.3808E-4,0
ARCTIC WEATHER SATELLITE,2024-149CD,2026-06-15T22:40:23.469312,14.89804852,.00036281,97.6802,237.4459,106.4179,253.7438,0,U,60543,999,9911,.88115697E-4,.792E-5,0
CAPELLA-15 (ACADIA-5),2024-149CE,2026-06-15T21:56:56.344992,14.92387617,.00048128,97.6773,239.8496,81.7285,278.4480,0,U,60544,999,9966,.27624882E-3,.2773E-4,0
HAWK-10B,2024-149CF,2026-06-15T18:22:05.331072,14.96512605,.00070373,97.6817,242.0577,96.6080,263.5943,0,U,60545,999,9977,.16459758E-3,.1814E-4,0
ICEYE-X39,2024-149CG,2026-06-15T22:37:41.678400,14.99890081,.00051327,97.6765,243.9832,121.9523,238.2200,0,U,60546,999,9993,.24080432E-3,.2927E-4,0
UMBRA-10,2024-149CH,2026-06-15T17:58:04.604160,15.18005954,.00006303,97.6984,253.9568,72.1032,288.0270,0,U,60547,999,10051,.61937306E-3,.12537E-3,0
ICEYE-X33,2024-149CJ,2026-06-15T12:03:27.950976,15.00887084,.00015911,97.7215,245.6519,99.4442,260.6961,0,U,60548,999,9995,.33256737E-3,.4173E-4,0
ICEYE-X40,2024-149CK,2026-06-15T23:11:53.110752,14.97937349,.000664,97.6817,243.4817,85.6253,274.5728,0,U,60549,999,9989,.20024042E-3,.2303E-4,0
SATELIOT_1,2024-149CL,2026-06-15T18:10:47.075520,14.98062547,.00084207,97.6750,242.6785,85.1104,275.1079,0,U,60550,999,9985,.21734333E-3,.2514E-4,0
BRO-14,2024-149CM,2026-06-15T17:22:32.533824,14.96174209,.00080408,97.6876,242.5281,100.5237,259.6891,0,U,60551,999,9977,.55993014E-4,.574E-5,0
SATELIOT_3,2024-149CN,2026-06-15T22:24:24.819840,14.98048891,.0005878,97.6817,243.6431,89.2771,270.9124,0,U,60552,999,9989,.14324318E-3,.1636E-4,0
BRO-15,2024-149CP,2026-06-15T15:20:56.948928,14.96157426,.00096771,97.6809,242.0493,91.6780,268.5550,0,U,60553,999,9977,.87329195E-4,.927E-5,0
UM5-RIBAT,2024-149CQ,2026-06-15T22:32:05.856288,15.01069982,.00035651,97.6640,244.7562,63.8669,296.2921,0,U,60554,999,10000,.20722883E-3,.2591E-4,0
UM5-EOSAT,2024-149CR,2026-06-15T21:44:14.545824,15.01521756,.0008769,97.6709,245.6563,118.4783,241.7325,0,U,60555,999,10002,.30893729E-3,.3941E-4,0
LASARSAT,2024-247Q,2026-06-13T14:48:20.082240,15.46168743,.0008375,44.9751,282.2745,311.5212,48.4959,0,U,62391,999,8276,.65515E-3,.32689E-3,0
CROCUBE,2024-247T,2026-06-14T14:05:15.116064,15.48102542,.0008187,44.9722,274.1999,320.7516,39.2780,0,U,62394,999,8294,.65094E-3,.34757E-3,0
TEVEL2-4,2025-052D,2026-06-15T16:22:43.980672,15.34567843,.00048498,97.3913,63.0717,106.3363,253.8414,0,U,63213,999,6988,.46435922E-3,.15491E-3,0
TEVEL2-5,2025-052E,2026-06-15T23:07:38.752608,15.34401935,.00047611,97.3907,63.3018,106.7826,253.3939,0,U,63214,999,6992,.44491329E-3,.14759E-3,0
TEVEL2-6,2025-052F,2026-06-15T17:09:43.141824,15.34360157,.00046836,97.3914,63.0372,108.2404,251.9350,0,U,63215,999,6988,.47277785E-3,.1567E-3,0
TEVEL2-1,2025-052H,2026-06-15T16:16:50.190816,15.33827137,.00047118,97.3883,62.6268,116.5645,243.6081,0,U,63217,999,6986,.45614808E-3,.14861E-3,0
TEVEL2-3,2025-052J,2026-06-15T16:09:12.066912,15.33881810,.00046753,97.3888,62.6431,116.5450,243.6272,0,U,63218,999,6986,.46315196E-3,.15117E-3,0
TEVEL2-2,2025-052K,2026-06-15T16:17:18.045312,15.33835792,.00046877,97.3885,62.6296,116.9580,243.2142,0,U,63219,999,6986,.4622071E-3,.15064E-3,0
TEVEL2-9,2025-052AD,2026-06-15T15:41:59.038656,15.31858774,.00076759,97.3947,61.9834,135.1334,225.0529,0,U,63237,999,6979,.44881414E-3,.1375E-3,0
TEVEL2-7,2025-052AE,2026-06-15T22:56:47.751936,15.31570712,.0007779,97.3948,62.2015,134.5643,225.6235,0,U,63238,999,6983,.40832307E-3,.12388E-3,0
TEVEL2-8,2025-052AF,2026-06-15T23:08:39.623136,15.31555084,.00077907,97.3947,62.1866,135.1271,225.0601,0,U,63239,999,6983,.40879301E-3,.12397E-3,0
FORESAIL-1 PRIME,2025-276DS,2026-06-15T16:17:28.775328,15.18690446,.00038774,97.4204,239.9765,107.8702,252.2956,0,U,66778,999,3017,.22260456E-3,.455E-4,0
